NORAD_CAT_ID,OBJECT_NAME,OBJECT_TYPE,EPOCH,MEAN_MOTION,ECCENTRICITY,INCLINATION,RA_OF_ASC_NODE,ARG_OF_PERICENTER,MEAN_ANOMALY,BSTAR,MEAN_MOTION_DOT,MEAN_MOTION_DDOT,TLE_LINE0,TLE_LINE1,TLE_LINE2,SEMIMAJOR_AXIS,PERIOD,APOGEE,PERIGEE,DECAYED
50202.0,STARLINK-3256,PAYLOAD,2022-06-23 18:45:10,15.08832868,0.000232,53.215,201.5372,36.0313,324.0836,6.7643e-05,7.88e-06,0.0,0 STARLINK-3256,1 50202U 21125AY  22174.78137407  .00000788  00000-0  67643-4 0  9996,2 50202  53.2150 201.5372 0002320  36.0313 324.0836 15.08832868 32189,6917.901999999999,95.438,541.372,538.1619999999998,0.0
50202.0,STARLINK-3256,PAYLOAD,2022-06-24 10:39:01,15.08837468,0.0002266,53.2154,198.5636,36.3761,323.7385,7.744800000000001e-05,9.44e-06,0.0,0 STARLINK-3256,1 50202U 21125AY  22175.44377265  .00000944  00000-0  77448-4 0  9996,2 50202  53.2154 198.5636 0002266  36.3761 323.7385 15.08837468 31804,6917.888000000001,95.438,541.321,538.186,0.0
50202.0,STARLINK-3256,PAYLOAD,2022-06-24 18:35:57,15.08840071,0.000228,53.2154,197.0769,37.3087,322.8064,6.3351e-05,7.200000000000001e-06,0.0,0 STARLINK-3256,1 50202U 21125AY  22175.77497185  .00000720  00000-0  63351-4 0  9996,2 50202  53.2154 197.0769 0002280  37.3087 322.8064 15.08840071 32330,6917.88,95.438,541.322,538.168,0.0
50202.0,STARLINK-3256,PAYLOAD,2022-06-25 10:29:48,15.08843958,0.0002316,53.2155,194.1028,38.4663,321.6494,6.0935e-05,6.82e-06,0.0,0 STARLINK-3256,1 50202U 21125AY  22176.43736857  .00000682  00000-0  60935-4 0  9994,2 50202  53.2155 194.1028 0002316  38.4663 321.6494 15.08843958 32431,6917.868,95.437,541.335,538.131,0.0
50202.0,STARLINK-3256,PAYLOAD,2022-06-25 18:26:44,15.08845485,0.0002341,53.2155,192.6161,38.9221,321.1939,6.1199e-05,6.86e-06,0.0,0 STARLINK-3256,1 50202U 21125AY  22176.76856642  .00000686  00000-0  61199-4 0  9992,2 50202  53.2155 192.6161 0002341  38.9221 321.1939 15.08845485 32004,6917.864000000001,95.437,541.3480000000002,538.109,0.0
50202.0,STARLINK-3256,PAYLOAD,2022-06-26 07:09:49,15.08838816,0.0002385,53.2152,190.2373,40.8045,319.3125,-1.1988e-05,-4.79e-06,0.0,0 STARLINK-3256,1 50202U 21125AY  22177.29849211 -.00000479  00000-0 -11988-4 0  9998,2 50202  53.2152 190.2373 0002385  40.8045 319.3125 15.08838816 32088,6917.884,95.438,541.399,538.099,0.0
50202.0,STARLINK-3256,PAYLOAD,2022-06-26 18:17:32,15.0883418,0.000238,53.2154,188.1558,40.5028,319.6141,-6.2733e-05,-1.287e-05,0.0,0 STARLINK-3256,1 50202U 21125AY  22177.76217695 -.00001287  00000-0 -62733-4 0  9997,2 50202  53.2154 188.1558 0002380  40.5028 319.6141 15.08834180 32636,6917.898,95.438,541.41,538.117,0.0
50202.0,STARLINK-3256,PAYLOAD,2022-06-27 07:00:36,15.08836891,0.0002351,53.2158,185.7763,40.22,319.8966,-3.7842e-05,-8.91e-06,0.0,0 STARLINK-3256,1 50202U 21125AY  22178.29209474 -.00000891  00000-0 -37842-4 0  9995,2 50202  53.2158 185.7763 0002351  40.2200 319.8966 15.08836891 32715,6917.89,95.438,541.381,538.128,0.0
50202.0,STARLINK-3256,PAYLOAD,2022-06-28 03:40:37,15.08835529,0.0002403,53.2161,181.9105,40.6388,319.4783,-3.6548e-06,-3.47e-06,0.0,0 STARLINK-3256,1 50202U 21125AY  22179.15321508 -.00000347  00000-0 -36548-5 0  9993,2 50202  53.2161 181.9105 0002403  40.6388 319.4783 15.08835529 32367,6917.894,95.438,541.4209999999998,538.097,0.0
50202.0,STARLINK-3256,PAYLOAD,2022-06-28 10:02:10,15.08833112,0.0002451,53.2155,180.7215,40.7916,319.326,5.2275e-05,5.44e-06,0.0,0 STARLINK-3256,1 50202U 21125AY  22179.41817544  .00000544  00000-0  52275-4 0  9993,2 50202  53.2155 180.7215 0002451  40.7916 319.3260 15.08833112 32882,6917.901,95.438,541.462,538.071,0.0
50202.0,STARLINK-3256,PAYLOAD,2022-06-29 11:28:20,15.08837104,0.0002519,53.2152,175.9637,42.6851,317.4336,3.8392e-05,3.23e-06,0.0,0 STARLINK-3256,1 50202U 21125AY  22180.47801616  .00000323  00000-0  38392-4 0  9993,2 50202  53.2152 175.9637 0002519  42.6851 317.4336 15.08837104 33044,6917.889,95.438,541.497,538.012,0.0
50202.0,STARLINK-3256,PAYLOAD,2022-06-29 16:14:29,15.08837933,0.0002532,53.2152,175.0717,42.9354,317.1835,4.238100000000001e-05,3.86e-06,0.0,0 STARLINK-3256,1 50202U 21125AY  22180.67673566  .00000386  00000-0  42381-4 0  9998,2 50202  53.2152 175.0717 0002532  42.9354 317.1835 15.08837933 33074,6917.887,95.438,541.503,538.0,0.0
50202.0,STARLINK-3256,PAYLOAD,2022-06-30 09:43:44,15.08841112,0.0002582,53.2153,171.8005,44.2312,315.8887,3.7949e-05,3.16e-06,0.0,0 STARLINK-3256,1 50202U 21125AY  22181.40537355  .00000316  00000-0  37949-4 0  9992,2 50202  53.2153 171.8005 0002582  44.2312 315.8887 15.08841112 33181,6917.877,95.437,541.528,537.956,0.0
50202.0,STARLINK-3256,PAYLOAD,2022-06-30 16:05:16,15.0884202,0.0002596,53.2154,170.611,44.6918,315.4283,4.157e-05,3.73e-06,0.0,0 STARLINK-3256,1 50202U 21125AY  22181.67033237  .00000373  00000-0  41570-4 0  9999,2 50202  53.2154 170.6110 0002596  44.6918 315.4283 15.08842020 33227,6917.874,95.437,541.535,537.943,0.0
50202.0,STARLINK-3256,PAYLOAD,2022-07-01 07:59:08,15.08832121,0.0002592,53.2151,167.637,41.8202,318.2988,-3.0925e-05,-7.81e-06,0.0,0 STARLINK-3256,1 50202U 21125AY  22182.33274027 -.00000781  00000-0 -30925-4 0  9994,2 50202  53.2151 167.6370 0002592  41.8202 318.2988 15.08832121 33324,6917.904,95.438,541.563,537.976,0.0
50202.0,STARLINK-3256,PAYLOAD,2022-07-01 15:56:04,15.08830703,0.0002619,53.2154,166.1503,44.6639,315.4564,-7.0439e-05,-1.409e-05,0.0,0 STARLINK-3256,1 50202U 21125AY  22182.66394364 -.00001409  00000-0 -70439-4 0  9999,2 50202  53.2154 166.1503 0002619  44.6639 315.4564 15.08830703 33372,6917.909000000002,95.438,541.586,537.962,0.0
50202.0,STARLINK-3256,PAYLOAD,2022-07-02 07:49:56,15.08833782,0.0002648,53.2154,163.1765,39.2637,320.8547,-6.1117e-05,-1.261e-05,0.0,0 STARLINK-3256,1 50202U 21125AY  22183.32634414 -.00001261  00000-0 -61117-4 0  9995,2 50202  53.2154 163.1765 0002648  39.2637 320.8547 15.08833782 33471,6917.899,95.438,541.596,537.933,0.0
50202.0,STARLINK-3256,PAYLOAD,2022-07-02 15:46:51,15.08835991,0.0002631999999999,53.2155,161.6897,46.2175,313.9035,-4.0256e-05,-9.29e-06,0.0,0 STARLINK-3256,1 50202U 21125AY  22183.65754302 -.00000929  00000-0 -40256-4 0  9991,2 50202  53.2155 161.6897 0002632  46.2175 313.9035 15.08835991 33524,6917.893,95.438,541.578,537.937,0.0
50202.0,STARLINK-3256,PAYLOAD,2022-07-02 22:08:24,15.08836184,0.0002603,53.2153,160.5001,46.1576,313.9631,-3.9229e-05,-9.13e-06,0.0,0 STARLINK-3256,1 50202U 21125AY  22183.92250330 -.00000913  00000-0 -39229-4 0  9994,2 50202  53.2153 160.5001 0002603  46.1576 313.9631 15.08836184 33087,6917.892,95.438,541.558,537.956,0.0
50202.0,STARLINK-3256,PAYLOAD,2022-07-03 07:40:43,15.08832423,0.0002704,53.2156,158.7162,47.74100000000001,312.3811,7.4247e-05,8.93e-06,0.0,0 STARLINK-3256,1 50202U 21125AY  22184.31994282  .00000893  00000-0  74247-4 0  9993,2 50202  53.2156 158.7162 0002704  47.7410 312.3811 15.08832423 33628,6917.904,95.438,541.639,537.898,0.0
50202.0,STARLINK-3256,PAYLOAD,2022-07-03 21:59:11,15.08835576,0.0002729,53.2159,156.0397,49.2592,310.8637,7.9621e-05,9.79e-06,0.0,0 STARLINK-3256,1 50202U 21125AY  22184.91610292  .00000979  00000-0  79621-4 0  9991,2 50202  53.2159 156.0397 0002729  49.2592 310.8637 15.08835576 33718,6917.894,95.438,541.6469999999998,537.871,0.0
50202.0,STARLINK-3256,PAYLOAD,2022-07-04 04:20:43,15.08838025,0.0002739,53.2158,154.8503,49.7796,310.3435,9.3401e-05,1.198e-05,0.0,0 STARLINK-3256,1 50202U 21125AY  22185.18106148  .00001198  00000-0  93401-4 0  9997,2 50202  53.2158 154.8503 0002739  49.7796 310.3435 15.08838025 33278,6917.886,95.438,541.646,537.857,0.0
50202.0,STARLINK-3256,PAYLOAD,2022-07-04 07:31:29,15.08840109,0.0002762,53.2158,154.2554,50.2638,309.8598,9.6422e-05,1.246e-05,0.0,0 STARLINK-3256,1 50202U 21125AY  22185.31354013  .00001246  00000-0  96422-4 0  9998,2 50202  53.2158 154.2554 0002762  50.2638 309.8598 15.08840109 33770,6917.88,95.438,541.656,537.8340000000002,0.0
50202.0,STARLINK-3256,PAYLOAD,2022-07-04 21:49:57,15.08846357,0.0002791,53.2157,151.5791,51.1767,308.9474,8.968399999999999e-05,1.139e-05,0.0,0 STARLINK-3256,1 50202U 21125AY  22185.90969515  .00001139  00000-0  89684-4 0  9995,2 50202  53.2157 151.5791 0002791  51.1767 308.9474 15.08846357 33388,6917.861,95.437,541.6569999999998,537.795,0.0
50202.0,STARLINK-3256,PAYLOAD,2022-07-05 07:22:16,15.08843574,0.0002787,53.2166,149.7955,50.3402,309.7835,3.7132e-05,3.03e-06,0.0,0 STARLINK-3256,1 50202U 21125AY  22186.30713730  .00000303  00000-0  37132-4 0  9999,2 50202  53.2166 149.7955 0002787  50.3402 309.7835 15.08843574 33929,6917.869000000002,95.437,541.6619999999998,537.806,0.0
50202.0,STARLINK-3256,PAYLOAD,2022-07-05 21:40:45,15.0883756,0.0002811,53.2166,147.1196,50.7061,309.418,-2.3463e-05,-6.62e-06,0.0,0 STARLINK-3256,1 50202U 21125AY  22186.90330263 -.00000662  00000-0 -23463-4 0  9993,2 50202  53.2166 147.1196 0002811  50.7061 309.4180 15.08837560 33536,6917.888000000001,95.438,541.697,537.808,0.0
50202.0,STARLINK-3256,PAYLOAD,2022-07-06 07:13:03,15.08840723,0.0002836,53.2163,145.3351,51.94600000000001,308.1788,-2.8811e-05,-7.47e-06,0.0,0 STARLINK-3256,1 50202U 21125AY  22187.30074055 -.00000747  00000-0 -28811-4 0  9998,2 50202  53.2163 145.3351 0002836  51.9460 308.1788 15.08840723 34074,6917.878000000002,95.438,541.705,537.781,0.0
50202.0,STARLINK-3256,PAYLOAD,2022-07-07 07:03:51,15.08834376,0.0002867,53.2161,140.8749,53.8266,306.2991,-7.5843e-05,-1.495e-05,0.0,0 STARLINK-3256,1 50202U 21125AY  22188.29435023 -.00001495  00000-0 -75843-4 0  9991,2 50202  53.2161 140.8749 0002867  53.8266 306.2991 15.08834376 34221,6917.898,95.438,541.746,537.779,0.0
50202.0,STARLINK-3256,PAYLOAD,2022-07-07 21:22:19,15.08836051,0.0002813,53.2164,138.1982,55.3117,304.814,8.0217e-06,-1.61e-06,0.0,0 STARLINK-3256,1 50202U 21125AY  22188.89050914 -.00000161  00000-0  80217-5 0  9999,2 50202  53.2164 138.1982 0002813  55.3117 304.8140 15.08836051 34318,6917.892,95.438,541.703,537.811,0.0
